NORAD_CAT_ID,OBJECT_NAME,OBJECT_TYPE,EPOCH,MEAN_MOTION,ECCENTRICITY,INCLINATION,RA_OF_ASC_NODE,ARG_OF_PERICENTER,MEAN_ANOMALY,BSTAR,MEAN_MOTION_DOT,MEAN_MOTION_DDOT,TLE_LINE0,TLE_LINE1,TLE_LINE2,SEMIMAJOR_AXIS,PERIOD,APOGEE,PERIGEE,DECAYED
56454.0,STARLINK-5959,PAYLOAD,2023-07-14 04:00:01,15.02671431,0.0003068,70.0002,69.0078,271.7378,313.1614,-0.076709,-0.00956206,0.0,0 STARLINK-5959,1 56454U 23064G   23195.16668981 -.00956206  00000-0 -76709-1 0  9994,2 56454  70.0002  69.0078 0003068 271.7378 313.1614 15.02671431 10377,6936.8,95.829,560.793,556.536,0.0
56454.0,STARLINK-5959,PAYLOAD,2023-07-15 06:00:02,15.0056393,0.0003169,70.0001,66.2625,270.3606,49.0598,-0.084172,-0.0098992,0.0,0 STARLINK-5959,1 56454U 23064G   23196.25002315 -.00989920  00000-0 -84172-1 0  9990,2 56454  70.0001  66.2625 0003169 270.3606  49.0598 15.00563930 10530,6943.293,95.964,567.359,562.958,0.0
56454.0,STARLINK-5959,PAYLOAD,2023-07-15 14:00:01,14.99764021,0.0003028,70.0003,65.4197,265.9784,53.1331,-0.050027,-0.00583893,0.0,0 STARLINK-5959,1 56454U 23064G   23196.58334491 -.00583893  00000-0 -50027-1 0  9990,2 56454  70.0003  65.4197 0003028 265.9784  53.1331 14.99764021 10585,6945.762,96.015,569.73,565.524,0.0
56454.0,STARLINK-5959,PAYLOAD,2023-07-15 22:00:00,14.99290857,0.0002907,70.0002,64.5777,271.1766,46.8877,0.00041992,5.047e-05,0.0,0 STARLINK-5959,1 56454U 23064G   23196.91667824  .00005047  00000-0  41992-3 0  9997,2 56454  70.0002  64.5777 0002907 271.1766  46.8877 14.99290857 10633,6947.223,96.045,571.108,567.069,0.0
56454.0,STARLINK-5959,PAYLOAD,2023-07-17 02:00:01,14.99283998,0.0002952,69.9997,61.6314,275.3095,218.0254,0.0018398,0.0002248,0.0,0 STARLINK-5959,1 56454U 23064G   23198.08334491  .00022480  00000-0  18398-2 0  9991,2 56454  69.9997  61.6314 0002952 275.3095 218.0254 14.99283998 10819,6947.244,96.046,571.16,567.058,0.0
56454.0,STARLINK-5959,PAYLOAD,2023-07-17 22:00:00,14.99306743,0.0002944,69.9996,59.5269,272.9041,37.0402,-0.0011984,-0.00014729,0.0,0 STARLINK-5959,1 56454U 23064G   23198.91667824 -.00014729  00000-0 -11984-2 0  9995,2 56454  69.9996  59.5269 0002944 272.9041  37.0402 14.99306743 10939,6947.174,96.044,571.084,566.994,0.0
56454.0,STARLINK-5959,PAYLOAD,2023-07-18 22:00:00,14.99301343,0.0002957,69.9995,57.0012,271.1379,34.7422,-0.00089839,-0.00011069,0.0,0 STARLINK-5959,1 56454U 23064G   23199.91667824 -.00011069  00000-0 -89839-3 0  9995,2 56454  69.9995  57.0012 0002957 271.1379  34.7422 14.99301343 11080,6947.191,96.045,571.11,567.001,0.0
56454.0,STARLINK-5959,PAYLOAD,2023-07-19 19:03:25,14.99296512,0.0002755,69.9984,54.7849,266.6062,93.4782,-2.9945e-05,-4.6e-06,0.0,0 STARLINK-5959,1 56454U 23064G   23200.79404625 -.00000460  00000-0 -29945-4 0  9998,2 56454  69.9984  54.7849 0002755 266.6062  93.4782 14.99296512 11222,6947.206,96.045,570.985,567.157,0.0
56454.0,STARLINK-5959,PAYLOAD,2023-07-20 19:04:30,14.99298989,0.0002856,69.9986,52.2585,265.099,94.9843,2.8551e-05,2.55e-06,0.0,0 STARLINK-5959,1 56454U 23064G   23201.79479600  .00000255  00000-0  28551-4 0  9996,2 56454  69.9986  52.2585 0002856 265.0990  94.9843 14.99298989 11379,6947.198,96.045,571.047,567.079,0.0
56454.0,STARLINK-5959,PAYLOAD,2023-07-23 23:57:16,14.9868465,0.0003532,69.9989,44.1742,269.9134,90.162,-0.0050583,-0.00060486,0.0,0 STARLINK-5959,1 56454U 23064G   23204.99811163 -.00060486  00000-0 -50583-2 0  9997,2 56454  69.9989  44.1742 0003532 269.9134  90.1620 14.98684650 11499,6949.096,96.084,573.416,568.507,0.0
56454.0,STARLINK-5959,PAYLOAD,2023-07-25 14:00:01,14.98338471,0.0003238,70.0007,40.1752,269.1207,359.8589,-0.00032893,-4.016e-05,0.0,0 STARLINK-5959,1 56454U 23064G   23206.58335648 -.00004016  00000-0 -32893-3 0  9995,2 56454  70.0007  40.1752 0003238 269.1207 359.8589 14.98338471  2234,6950.167,96.106,574.282,569.781,0.0
56454.0,STARLINK-5959,PAYLOAD,2023-07-26 14:00:01,14.98351544,0.0003308,70.0008,37.6538,268.3492,353.0082,-0.0010372,-0.00012454,0.0,0 STARLINK-5959,1 56454U 23064G   23207.58334491 -.00012454  00000-0 -10372-2 0  9993,2 56454  70.0008  37.6538 0003308 268.3492 353.0082 14.98351544  2389,6950.126,96.106,574.29,569.692,0.0
56454.0,STARLINK-5959,PAYLOAD,2023-07-26 20:00:01,14.98337976,0.0003325,70.0006,37.0234,272.7587,256.732,-0.0014424,-0.00017265,0.0,0 STARLINK-5959,1 56454U 23064G   23207.83334491 -.00017265  00000-0 -14424-2 0  9998,2 56454  70.0006  37.0234 0003325 272.7587 256.7320 14.98337976 12273,6950.168,96.106,574.344,569.722,0.0
56454.0,STARLINK-5959,PAYLOAD,2023-07-26 22:00:01,14.98327675,0.0003324,70.0007,36.8131,273.5363,345.3997,3.5426e-05,3.3e-06,0.0,0 STARLINK-5959,1 56454U 23064G   23207.91668981  .00000330  00000-0  35426-4 0  9991,2 56454  70.0007  36.8131 0003324 273.5363 345.3997 14.98327675  2434,6950.2,96.107,574.375,569.755,0.0
56454.0,STARLINK-5959,PAYLOAD,2023-07-27 00:03:10,14.98338377,0.0003234,69.9969,36.597,271.5825,88.4963,6.0845e-05,6.33e-06,0.0,0 STARLINK-5959,1 56454U 23064G   23208.00220043  .00000633  00000-0  60845-4 0  9994,2 56454  69.9969  36.5970 0003234 271.5825  88.4963 14.98338377 12303,6950.167,96.106,574.28,569.784,0.0
56454.0,STARLINK-5959,PAYLOAD,2023-07-27 11:16:07,14.98328142,0.0003074,69.9986,35.418,266.9895,93.0912,-3.6345e-05,-5.27e-06,0.0,0 STARLINK-5959,1 56454U 23064G   23208.46952822 -.00000527  00000-0 -36345-4 0  9993,2 56454  69.9986  35.4180 0003074 266.9895  93.0912 14.98328142 12372,6950.199,96.107,574.2,569.927,0.0
56454.0,STARLINK-5959,PAYLOAD,2023-07-27 12:52:15,14.98323834,0.0002842,69.9984,35.2508,275.0395,85.0439,7.4172e-05,7.92e-06,0.0,0 STARLINK-5959,1 56454U 23064G   23208.53628952  .00000792  00000-0  74172-4 0  9997,2 56454  69.9984  35.2508 0002842 275.0395  85.0439 14.98323834 12020,6950.212,96.107,574.052,570.102,0.0
56454.0,STARLINK-5959,PAYLOAD,2023-07-27 19:16:47,14.98333669,0.0003277,69.9984,34.5764,274.79,85.2885,-0.00016772,-2.094e-05,0.0,0 STARLINK-5959,1 56454U 23064G   23208.80333013 -.00002094  00000-0 -16772-3 0  9998,2 56454  69.9984  34.5764 0003277 274.7900  85.2885 14.98333669 12065,6950.182,96.107,574.324,569.769,0.0
56454.0,STARLINK-5959,PAYLOAD,2023-07-28 11:18:08,14.98320698,0.000322,69.9985,32.8937,269.0843,90.9947,0.00020639,2.37e-05,0.0,0 STARLINK-5959,1 56454U 23064G   23209.47092736  .00002370  00000-0  20639-3 0  9998,2 56454  69.9985  32.8937 0003220 269.0843  90.9947 14.98320698 12161,6950.222,96.108,574.325,569.849,0.0
56454.0,STARLINK-5959,PAYLOAD,2023-07-29 19:20:49,14.98327815,0.0003151,69.9989,29.5277,268.8046,91.2752,5.4426e-05,5.56e-06,0.0,0 STARLINK-5959,1 56454U 23064G   23210.80612764  .00000556  00000-0  54426-4 0  9992,2 56454  69.9989  29.5277 0003151 268.8046  91.2752 14.98327815 12728,6950.2,96.107,574.255,569.875,0.0
56454.0,STARLINK-5959,PAYLOAD,2023-07-30 22:35:06,14.98334239,0.0003114,69.9991,26.6659,267.7094,92.3709,6.4529e-06,-1.6e-07,0.0,0 STARLINK-5959,1 56454U 23064G   23211.94104357 -.00000016  00000-0  64529-5 0  9990,2 56454  69.9991  26.6659 0003114 267.7094  92.3709 14.98334239 12893,6950.18,96.107,574.209,569.88,0.0
56454.0,STARLINK-5959,PAYLOAD,2023-07-31 17:48:45,14.9830744,0.000328,69.999,24.6461,267.8063,92.272,-0.00022737,-2.803e-05,0.0,0 STARLINK-5959,1 56454U 23064G   23212.74218975 -.00002803  00000-0 -22737-3 0  9991,2 56454  69.9990  24.6461 0003280 267.8063  92.2720 14.98307440 13013,6950.263,96.108,574.407,569.848,0.0
56454.0,STARLINK-5959,PAYLOAD,2023-08-01 17:50:45,14.98325993,0.0003509,69.9984,22.1206,269.2077,90.868,2.1786e-05,1.67e-06,0.0,0 STARLINK-5959,1 56454U 23064G   23213.74357968  .00000167  00000-0  21786-4 0  9991,2 56454  69.9984  22.1206 0003509 269.2077  90.8680 14.98325993 13169,6950.205,96.107,574.509,569.631,0.0
56454.0,STARLINK-5959,PAYLOAD,2023-08-02 05:03:41,14.98333127,0.0003605,69.9986,20.9423,267.5317,92.543,5.2284e-05,5.31e-06,0.0,0 STARLINK-5959,1 56454U 23064G   23214.21089474  .00000531  00000-0  52284-4 0  9990,2 56454  69.9986  20.9423 0003605 267.5317  92.5430 14.98333127 13231,6950.183,96.107,574.554,569.543,0.0
56454.0,STARLINK-5959,PAYLOAD,2023-08-02 22:41:09,14.98333705,0.0003671,69.9987,19.0902,269.8725,90.2013,0.00036783,4.299e-05,0.0,0 STARLINK-5959,1 56454U 23064G   23214.94524599  .00004299  00000-0  36783-3 0  9992,2 56454  69.9987  19.0902 0003671 269.8725  90.2013 14.98333705 13340,6950.181,96.107,574.598,569.495,0.0
56454.0,STARLINK-5959,PAYLOAD,2023-08-04 09:56:06,14.98346219,0.0003443,69.9996,15.3869,269.5797,90.4967,-5.9073e-05,-7.98e-06,0.0,0 STARLINK-5959,1 56454U 23064G   23216.41396087 -.00000798  00000-0 -59073-4 0  9995,2 56454  69.9996  15.3869 0003443 269.5797  90.4967 14.98346219 13562,6950.143,96.106,574.401,569.615,0.0
56454.0,STARLINK-5959,PAYLOAD,2023-08-04 17:56:45,14.98353115,0.0003289,70.0001,14.5468,265.581,94.4973,3.4554e-05,3.2e-06,0.0,0 STARLINK-5959,1 56454U 23064G   23216.74774934  .00000320  00000-0  34554-4 0  9998,2 56454  70.0001  14.5468 0003289 265.5810  94.4973 14.98353115 13618,6950.121,96.106,574.272,569.701,0.0
56454.0,STARLINK-5959,PAYLOAD,2023-08-05 09:58:06,14.98334248,0.0003118,70.0013,12.8639,265.6285,94.4518,-9.8965e-05,-1.274e-05,0.0,0 STARLINK-5959,1 56454U 23064G   23217.41535860 -.00001274  00000-0 -98965-4 0  9993,2 56454  70.0013  12.8639 0003118 265.6285  94.4518 14.98334248 13712,6950.18,96.107,574.212,569.878,0.0
56454.0,STARLINK-5959,PAYLOAD,2023-08-05 19:34:55,14.98326536,0.0003028,70.0009,11.8537,256.7664,103.3158,-0.00016114,-2.015e-05,0.0,0 STARLINK-5959,1 56454U 23064G   23217.81592386 -.00002015  00000-0 -16114-3 0  9992,2 56454  70.0009  11.8537 0003028 256.7664 103.3158 14.98326536 13772,6950.204,96.107,574.173,569.964,0.0
56454.0,STARLINK-5959,PAYLOAD,2023-08-06 18:00:49,14.98320135,0.000345,69.9999,9.4956,267.5822,92.4942,-0.00029645,-3.628e-05,0.0,0 STARLINK-5959,1 56454U 23064G   23218.75057504 -.00003628  00000-0 -29645-3 0  9998,2 56454  69.9999   9.4956 0003450 267.5822  92.4942 14.98320135 13914,6950.223,96.108,574.486,569.691,0.0
